C/2017 K6 (Jacques),e,57.2414,85.0085,303.7525,1095,0.0000272,0.99817681,0.0000,01/03.5565/2018,2000,g 11.0,4.0
# From MPC110083
C/2017 M3 (PANSTARRS),e,77.5721,7.0257,110.3173,166.7544,0.0004577,0.97208201,0.0000,04/28.1350/2017,2000,g 10.5,4.0
# From MPC118093
C/2017 M4 (ATLAS),h,01/17.9407/2019,105.6488,65.8921,167.6072,1.001306,3.253383,2000,6.0,4.0
# From MPC118841
C/2017 M5 (TOTAS),h,06/04.3717/2018,15.8739,216.2857,92.7866,1.005486,5.996178,2000,6.5,4.0
# From MPC114599
C/2017 O1 (ASASSN),e,39.9300,25.7441,20.8369,359.2623,0.0001447,0.99584374,0.0000,10/15.0844/2017,2000,g 11.0,4.0
# From MPC114599
P/2017 P1 (PANSTARRS),e,7.6945,221.3941,122.3860,7.899772,0.0443897,0.31092310,48.5571,06/18.0/2021,2000,g 10.0,4.0
# From MPC114599
C/2017 P2 (PANSTARRS),e,50.0503,165.4688,132.4095,2320,0.0000088,0.99893635,0.0000,12/06.5695/2017,2000,g 10.0,4.0
# From MPC114599
P/2017 R1 (PANSTARRS),e,2.5743,143.6164,178.6351,4.135067,0.1172142,0.19569400,179.2555,06/18.0/2021,2000,g 13.5,4.0
# From MPC108595
C/2017 S2 (PANSTARRS),e,12.6748,62.3797,305.9964,20.57217,0.0105629,0.82444971,14.6607,06/18.0/2021,2000,g 13.0,4.0
# From MPC114599
C/2017 S3 (PANSTARRS),h,08/16.1345/2018,99.1778,171.2575,255.8308,1.000060,0.207578,2000,11.0,4.0
# From MPC114599
P/2017 S5 (ATLAS),e,11.8523,252.3676,99.8900,3.167599,0.1748271,0.31434051,248.2029,06/18.0/2021,2000,g 14.0,4.0
# From MPC109591
C/2017 S6 (Catalina),h,02/26.2883/2018,152.8674,131.0424,134.8494,1.000683,1.545854,2000,12.5,4.0
# From MPC114599
C/2017 S7 (Lemmon),e,124.2271,262.7675,187.5523,32299,0.0000002,0.99976449,0.0000,05/24.6538/2017,2000,g  7.0,4.0
# From MPC114599
P/2017 S8 (PANSTARRS),e,29.8300,191.5743,254.7620,2.780690,0.2125569,0.39165608,263.2662,06/18.0/2021,2000,g 16.0,4.0
# From MPC107050
P/2017 S9 (PANSTARRS),e,14.1439,146.2231,237.7016,3.153613,0.1759914,0.30526972,250.9352,06/18.0/2021,2000,g 17.0,4.0
# From MPC114600
C/2017 T1 (Heinze),e,96.8533,102.3631,96.9623,15406,0.0000005,0.99996212,0.0000,02/21.0389/2018,2000,g 14.5,4.0
# From MPC119996
C/2017 T2 (PANSTARRS),e,57.2255,64.3770,93.0026,2550,0.0000077,0.99936642,0.0000,05/04.9151/2020,2000,g  5.0,4.0
# From MPC114600
C/2017 T3 (ATLAS),e,88.1042,230.1138,246.8296,1188,0.0000241,0.99930543,0.0000,07/18.8598/2018,2000,g 10.0,4.0
# From MPC115882
P/2017 TW13 (Lemmon),e,44.8501,322.2981,119.9693,7.141817,0.0516406,0.70953291,56.4477,06/18.0/2021,2000,g 15.0,2.0
# From MPC114600
C/2017 U2 (Fuls),e,95.3871,149.7069,147.8147,3018,0.0000059,0.99777695,0.0000,08/28.1923/2017,2000,g  9.0,4.0
# From MPC114600
P/2017 U3 (PANSTARRS),e,15.9175,165.1088,296.7663,4.929161,0.0900626,0.09890483,71.5537,06/18.0/2021,2000,g 11.0,4.0
# From MPC114600
C/2017 U4 (PANSTARRS),h,09/23.1129/2018,158.2134,245.9387,159.0157,1.001885,7.720698,2000,7.0,4.0
# From MPC114600
C/2017 U5 (PANSTARRS),e,18.9761,163.0854,262.0128,16.87733,0.0142151,0.74407464,18.1591,06/18.0/2021,2000,g 12.0,4.0
# From MPC118841
C/2017 U7,h,09/14.1698/2019,142.5909,276.2448,326.3190,1.000477,6.423501,2000,8.3,2.0
# From MPC114600
C/2017 W2 (Leonard),e,98.1990,312.8414,169.0043,13.65018,0.0195432,0.71056956,25.8931,06/18.0/2021,2000,g 11.0,4.0
# From MPC114601
P/2017 W3 (Gibbs),e,18.1671,210.2722,327.8310,7.841667,0.0448840,0.50721932,54.0980,06/18.0/2021,2000,g 10.5,4.0
# From MPC115883
C/2017 X1 (PANSTARRS),e,31.3073,251.1312,283.2761,31.26801,0.0056371,0.85066525,6.1950,06/18.0/2021,2000,g 10.0,4.0
# From MPC117069
C/2017 Y1 (PANSTARRS),e,55.2657,307.5285,134.2875,1776,0.0000132,0.99791142,0.0000,08/31.2142/2017,2000,g 11.5,4.0
# From MPC118841
C/2017 Y2 (PANSTARRS),h,11/04.7735/2020,128.4117,65.9943,147.8963,1.000804,4.632344,2000,15.0,4.0
# From MPC111770
P/2017 Y3 (Leonard),e,27.5582,153.8439,67.6083,9.843093,0.0319159,0.86999602,39.0518,06/18.0/2021,2000,g 16.5,4.0
# From MPC114601
C/2018 A1 (PANSTARRS),e,53.6123,336.6575,96.2425,25.09709,0.0078391,0.90385258,10.4763,06/18.0/2021,2000,g 12.5,4.0
# From MPC119996
C/2018 A3 (ATLAS),e,139.5396,194.2936,86.3790,445.2124,0.0001049,0.99264277,0.0000,01/12.4252/2019,2000,g  8.5,4.0
# From MPC114601
C/2018 A4 (PANSTARRS),e,3.1485,97.6237,356.0160,12.19587,0.0231412,0.80335768,26.0683,06/18.0/2021,2000,g 14.0,4.0
# From MPC109147
P/2018 A5 (PANSTARRS),e,23.5838,87.8184,359.5447,5.633796,0.0737059,0.52239147,100.5340,06/18.0/2021,2000,g 15.0,4.0
# From MPC119996
C/2018 A6 (Gibbs),e,77.0256,340.3764,264.5274,15.25924,0.0165350,0.80214810,11.6598,06/18.0/2021,2000,g  9.0,4.0
# From MPC118841
C/2018 B1 (Lemmon),h,03/29.1982/2018,162.4201,133.1907,68.3176,1.000444,5.117846,2000,9.0,4.0
# From MPC114601
P/2018 C1 (Lemmon-Read),e,5.1183,270.3724,235.7047,5.654337,0.0733047,0.53271104,88.6025,06/18.0/2021,2000,g 13.5,4.0
# From MPC114601
C/2018 C2 (Lemmon),h,06/01.4924/2018,34.4604,91.1578,134.1083,1.000616,1.958985,2000,13.0,4.0
# From MPEC 2020-AA5
C/2018 DO4 (Lemmon),e,160.4668,251.2570,176.1623,25.68028,0.0075736,0.90612945,5.0737,06/18.0/2021,2000,g 11.0,4.0
# From MPC114602
C/2018 E1 (ATLAS),e,72.5164,146.8673,299.3723,53.91044,0.0024900,0.94990998,2.8824,06/18.0/2021,2000,g 10.5,4.0
# From MPC114602
C/2018 E2 (Barros),e,97.6932,67.1896,277.4604,4001,0.0000039,0.99902036,0.0000,12/24.0298/2017,2000,g 10.5,4.0
# From MPC114602
C/2018 EN4 (NEOWISE),e,81.7007,136.1381,35.0198,18.18315,0.0127116,0.92014392,14.0782,06/18.0/2021,2000,g 15.0,4.0
# From MPC114602
C/2018 EF9 (Lemmon),e,84.6298,172.5608,72.6201,528.4837,0.0000811,0.99705162,0.0000,05/22.5927/2018,2000,g 18.0,2.0
# From MPC115883
C/2018 F1 (Grauer),e,46.0778,177.2758,71.6281,275.4312,0.0002156,0.98912724,0.0000,12/13.5534/2018,2000,g 11.5,4.0
# From MPC110084
C/2018 F3 (Johnson),p,08/15.2314/2017,105.5348,293.0113,2.483172,173.0311,2000,13.0,4.0
# From MPC119996
C/2018 F4 (PANSTARRS),h,12/04.1053/2019,78.0901,26.5146,263.2324,1.001133,3.440671,2000,11.9,2.0
# From MPC114602
P/2018 H2 (PANSTARRS),e,7.3889,68.3668,119.9535,4.391157,0.1071114,0.54025947,133.1071,06/18.0/2021,2000,g 16.6,2.0
# From MPC114602
C/2018 K1 (Weiland),e,164.1952,260.0613,325.1164,30.02633,0.0059903,0.93729976,6.9974,06/18.0/2021,2000,g 14.9,4.0
# From MPC118094
C/2018 KJ3 (Lemmon),e,136.7060,91.6076,217.6772,880.4489,0.0000377,0.99587767,0.0000,09/09.7822/2019,2000,g 12.2,2.0
# From MPC114602
P/2018 L1 (PANSTARRS),e,10.5906,268.6320,18.0000,3.651348,0.1412616,0.48272287,133.9761,06/18.0/2021,2000,g 15.0,4.0
# From MPC118841
C/2018 L2 (ATLAS),e,67.3676,243.0224,56.2830,260.9979,0.0002337,0.99343606,0.0000,12/02.6845/2018,2000,g 10.0,4.0
# From MPC114603
P/2018 L4 (PANSTARRS),e,26.6254,145.1525,140.5847,4.941651,0.0897214,0.66002479,94.4038,06/18.0/2021,2000,g 17.5,4.0
# From MPC119996
P/2018 L5 (Leonard),e,2.2081,219.1088,93.8409,3.628058,0.1426241,0.36473548,162.5567,06/18.0/2021,2000,g 14.5,4.0
# From MPC117070
C/2018 M1 (Catalina),e,37.2977,339.4115,14.1752,21.38296,0.0099679,0.93908583,10.7013,06/18.0/2021,2000,g 15.5,4.0
# From MPC112393
C/2018 N1 (NEOWISE),e,159.4418,292.4534,354.6493,359.3229,0.0001447,0.99635302,0.0000,08/02.0071/2018,2000,g 15.5,4.0
# From MPC119996
C/2018 N2 (ASASSN),h,11/10.9892/2019,77.5313,25.2364,24.4105,1.000162,3.124968,2000,6.0,4.0
# From MPC114603
C/2018 O1 (ATLAS),e,154.0350,87.6636,162.6117,27.95675,0.0066677,0.94417179,6.8099,06/18.0/2021,2000,g 17.0,4.0
# From MPC114603
P/2018 P3 (PANSTARRS),e,8.9098,59.1759,305.8869,3.005897,0.1891223,0.41664122,185.7167,06/18.0/2021,2000,g 14.5,4.0
# From MPC114603
P/2018 P4 (PANSTARRS),e,23.1081,353.0687,8.2535,6.674085,0.0571632,0.45053115,54.4667,06/18.0/2021,2000,g 12.0,4.0
# From MPC118094
C/2018 P5 (PANSTARRS),e,7.2516,216.2356,131.7635,12.80840,0.0215012,0.64254412,18.0977,06/18.0/2021,2000,g 11.0,4.0
# From MPC118841
C/2018 R3 (Lemmon),e,69.7296,324.6418,112.8129,1617,0.0000152,0.99920341,0.0000,06/07.2796/2019,2000,g  9.5,4.0
# From MPC112393
C/2018 R4 (Fuls),e,11.6826,298.4454,345.2977,333.7230,0.0001617,0.99485986,0.0000,03/03.5591/2018,2000,g 14.0,4.0
# From MPC114603
C/2018 R5 (Lemmon),e,103.7483,171.1223,178.0675,22.79081,0.0090587,0.84097855,8.0621,06/18.0/2021,2000,g 11.5,4.0
# From MPC119996
C/2018 U1 (Lemmon),h,11/02.9603/2021,108.2964,75.4809,180.4523,1.001320,4.992858,2000,5.0,4.0
# From MPC114604
C/2018 V1 (Machholz-Fujikawa-Iwamoto),h,12/03.1800/2018,144.0548,128.8829,88.8601,1.000337,0.386742,2000,12.0,4.0
# From MPC115884
C/2018 V2 (ATLAS),e,159.1679,357.0860,318.9458,25.08977,0.0078426,0.90123724,7.3317,06/18.0/2021,2000,g 15.0,4.0
# From MPC114604
P/2018 VN2 (Leonard),e,18.2508,226.5000,138.7548,4.064505,0.1202798,0.47860986,133.2817,06/18.0/2021,2000,g 15.0,4.0
# From MPC117070
A/2018 V3,e,164.9780,308.6566,3.5367,122.8156,0.0007241,0.98908275,0.0000,09/08.6959/2019,2000,g 15.7,2.0
# From MPC114604
C/2018 V4 (Africano),e,69.0045,78.3553,359.9347,204.8198,0.0003362,0.98439310,0.0000,03/01.3867/2019,2000,g 12.5,4.0
# From MPC114604
P/2018 V5 (Trujillo-Sheppard),e,10.5866,171.2875,260.6803,8.954245,0.0367841,0.47473047,36.3872,06/18.0/2021,2000,g 12.5,4.0
# From MPC115884
C/2018 W1 (Catalina),e,83.2802,233.6003,251.2448,21.69496,0.0097536,0.93728276,7.4939,06/18.0/2021,2000,g 15.7,2.0
# From MPC119996
C/2018 W2 (Africano),h,09/05.5956/2019,116.6189,181.8411,157.9793,1.000397,1.455562,2000,9.5,4.0
# From MPC119996
C/2018 X2 (Fitzsimmons),e,23.0693,340.8297,162.0435,145.6577,0.0005607,0.98540175,0.0000,07/08.3425/2019,2000,g 12.0,4.0
# From MPC114604
C/2018 X3 (PANSTARRS),e,43.3742,78.8969,359.7449,12.37360,0.0226443,0.78215845,20.3897,06/18.0/2021,2000,g 14.5,4.0
# From MPC118842
C/2018 Y1 (Iwamoto),e,160.3990,147.5138,358.0066,139.2391,0.0005999,0.99077427,0.0000,02/06.9450/2019,2000,g 11.5,4.0
# From MPC114605
P/2018 Y2 (Africano),e,11.6825,297.2620,162.3248,7.459892,0.0483733,0.47862281,43.4594,06/18.0/2021,2000,g 11.5,4.0
# From MPC114605
P/2019 A1 (PANSTARRS),e,13.7443,312.3021,150.7679,5.121696,0.0850322,0.56834851,83.4509,06/18.0/2021,2000,g 16.0,4.0
# From MPC114605
P/2019 A2 (ATLAS),e,14.8607,139.4702,324.0188,5.721139,0.0720245,0.38136087,67.7485,06/18.0/2021,2000,g 10.5,4.0
